ONEWEB-0589             
1 54655U 22166P   24312.39804825  .00000156  00000+0  34676-3 0  9993
2 54655  87.9334   0.8729 0002266 122.1756 237.9598 13.21827155 94020
ONEWEB-0590             
1 54656U 22166Q   24312.42171295  .00000075  00000+0  14991-3 0  9994
2 54656  87.9320   0.8782 0001674  99.6939 260.4384 13.21826152 94017
ONEWEB-0591             
1 54657U 22166R   24312.58572833  .00000075  00000+0  14899-3 0  9992
2 54657  87.9331   0.8376 0001803 102.0145 258.1191 13.21824980 94524
ONEWEB-0592             
1 54658U 22166S   24312.58886692 -.00000145  00000+0 -38367-3 0  9990
2 54658  87.9325   0.7965 0001853 104.9638 255.1701 13.21824954 93944
ONEWEB-0593             
1 54659U 22166T   24312.61253608  .00000055  00000+0  10239-3 0  9996
2 54659  87.9330   0.8232 0001913 104.7742 255.3604 13.21824765 94057
ONEWEB-0594             
1 54660U 22166U   24312.55576539  .00000128  00000+0  27790-3 0  9993
2 54660  87.9337   0.8392 0001907  96.2537 263.8814 13.21827013 94060
ONEWEB-0595             
1 54661U 22166V   24312.60938319  .00000116  00000+0  24860-3 0  9990
2 54661  87.9331   0.8124 0001743  92.8446 267.2888 13.21826294 94044
ONEWEB-0596             
1 54662U 22166W   24312.58256470  .00000036  00000+0  55671-4 0  9995
2 54662  87.9335   0.8261 0001733 105.9179 254.2146 13.21823150 94512
